C/2021 N3 (PANSTARRS),e,26.7482,337.5013,304.7177,146.0903,0.0005582,0.96086717,0.7433,04/11.0/2024,2000,g  8.5,4.0
# From MPEC 2022-A21
C/2021 O1 (Nishimura),e,27.5948,41.5938,74.3921,2779,0.0000067,0.99971794,0.0000,08/14.2640/2021,2000,g 10.5,4.0
# From MPEC 2022-L66
C/2021 O3 (PANSTARRS),h,04/21.1068/2022,56.7996,188.9631,299.9577,1.000044,0.286138,2000,10.5,4.0
# From MPEC 2024-F34
C/2021 P1 (PANSTARRS),e,51.6345,359.6869,40.4974,2849,0.0000065,0.99846360,0.0000,06/02.5859/2022,2000,g 11.0,4.0
# From MPEC 2023-R20
C/2021 P2 (PANSTARRS),e,150.0629,32.0826,76.7180,4808,0.0000030,0.99894557,0.0000,01/22.9736/2023,2000,g  9.0,4.0
# From MPEC 2024-F34
P/2021 P3 (PANSTARRS),e,27.1613,358.2441,334.0816,4.412387,0.1063393,0.33871140,111.3755,04/11.0/2024,2000,g 14.0,4.0
# From MPEC 2023-A50
C/2021 P4 (ATLAS),e,56.3247,348.0677,175.7958,297.6773,0.0001919,0.99637325,0.0000,07/30.3377/2022,2000,g  9.5,4.0
# From MPEC 2023-E68
P/2021 PE20 (ATLAS),e,20.0019,99.6268,210.4686,3.745927,0.1359456,0.67000083,141.3143,04/11.0/2024,2000,g 17.0,4.0
# From MPEC 2023-FK0
C/2021 Q3 (ATLAS),e,77.7402,307.9150,114.1170,75.63440,0.0014984,0.93117278,1.2072,04/11.0/2024,2000,g  8.0,4.0
# From MPEC 2024-BE0
C/2021 Q4 (Fuls),h,06/11.3811/2023,71.4847,183.3283,147.0639,1.002915,7.565256,2000,6.0,4.0
# From MPEC 2022-C56
P/2021 Q5 (ATLAS),e,10.7395,239.7573,180.9321,3.286878,0.1653974,0.62466168,157.8085,04/11.0/2024,2000,g 15.0,4.0
# From MPEC 2023-XP6
C/2021 Q6 (PANSTARRS),h,03/25.0575/2024,161.8464,133.5374,141.0238,1.001219,8.707845,2000,6.0,4.0
# From MPEC 2023-FK0
C/2021 QM45 (PANSTARRS),e,22.8162,354.5962,72.8548,388.1139,0.0001289,0.99285085,0.0000,08/13.6306/2022,2000,g 11.0,4.0
# From MPEC 2022-X67
P/2021 R1 (PANSTARRS),e,5.5214,143.2479,220.2453,8.299580,0.0412211,0.41135794,34.9932,04/11.0/2024,2000,g 11.0,4.0
# From MPEC 2022-X67
C/2021 R2 (PANSTARRS),e,134.4835,16.3068,32.5004,3977,0.0000039,0.99816067,0.0000,12/27.7080/2021,2000,g  7.5,4.0
# From MPEC 2021-W31
P/2021 R3 (PANSTARRS),e,19.9325,304.1946,2.7001,3.771060,0.1345888,0.33102261,141.5348,04/11.0/2024,2000,g 16.0,4.0
# From MPEC 2021-W31
P/2021 R4 (Wierzchos),e,21.0261,321.2956,56.7128,5.625128,0.0738764,0.58582793,67.2265,04/11.0/2024,2000,g 16.0,4.0
# From MPEC 2024-F34
P/2021 R5 (Rankin),e,7.8545,219.9542,167.5335,4.795687,0.0938486,0.30649369,76.8893,04/11.0/2024,2000,g 12.0,4.0
# From MPEC 2021-W31
P/2021 R6 (Groeller),e,34.9160,176.1592,220.8145,6.284894,0.0625543,0.59339680,55.7862,04/11.0/2024,2000,g 14.5,4.0
# From MPEC 2022-X67
C/2021 R7 (PANSTARRS),e,158.8633,170.1681,140.3099,868.2492,0.0000385,0.99349076,0.0000,04/16.5979/2021,2000,g 10.5,4.0
# From MPEC 2021-Y10
P/2021 R8 (Sheppard),e,2.2032,167.0746,190.8323,3.018994,0.1878931,0.29306158,172.2327,04/11.0/2024,2000,g 18.5,4.0
# From MPEC 2023-J29
C/2021 S1 (ATLAS),h,03/01.4998/2022,52.0543,299.8710,148.2340,1.002550,6.120738,2000,7.0,4.0
# From MPEC 2024-F34
C/2021 S3 (PANSTARRS),h,02/14.7109/2024,58.5330,215.6211,6.8545,1.000280,1.320213,2000,5.5,4.0
# From MPEC 2024-F34
C/2021 S4 (Tsuchinshan),e,17.4783,5.4829,72.9236,162.6304,0.0004752,0.95886769,0.0471,04/11.0/2024,2000,g  6.5,4.0
# From MPEC 2022-OB6
C/2021 T1 (Lemmon),e,140.3611,56.8446,51.5595,1862,0.0000123,0.99835617,0.0000,10/14.3700/2021,2000,g 12.5,4.0
# From MPEC 2023-A50
C/2021 T2 (Fuls),h,06/08.0420/2022,117.5389,223.2338,263.5864,1.000501,1.246799,2000,12.0,4.0
# From MPEC 2024-F34
C/2021 T4 (Lemmon),e,160.7780,257.8871,329.8181,25368,0.0000002,0.99994154,0.0000,07/31.5400/2023,2000,g  7.5,4.0
# From MPEC 2022-ED3
P/2021 U1 (Wierzchos),e,30.5519,246.7926,145.1611,8.532983,0.0395415,0.71300984,36.4909,04/11.0/2024,2000,g 14.5,4.0
# From MPEC 2022-L66
P/2021 U3 (Attard-Maury),e,69.9603,75.0968,335.2734,4.194929,0.1147142,0.54981418,103.1372,04/11.0/2024,2000,g 15.5,4.0
# From MPEC 2021-W31
C/2021 U4 (Leonard),e,152.8890,241.8085,237.3320,45.19508,0.0032439,0.96041759,2.7278,04/11.0/2024,2000,g 17.0,4.0
# From MPEC 2022-WQ9
C/2021 U5 (Catalina),e,39.0453,182.7350,321.4264,217.5870,0.0003071,0.98915079,0.0000,01/26.6662/2022,2000,g 13.0,4.0
# From MPEC 2022-CN4
C/2021 V1 (Rankin),e,71.4523,207.6710,195.1667,670.3385,0.0000568,0.99550091,0.0000,04/30.5708/2022,2000,g 13.0,4.0
# From MPEC 2024-F34
P/2021 V2 (Fuls),e,12.6948,232.2757,259.8536,9.074700,0.0360542,0.61468892,16.0599,04/11.0/2024,2000,g 10.0,4.0
# From MPEC 2024-DC6
C/2021 X1 (Maury-Attard),h,05/27.1351/2023,140.0983,10.5922,334.5640,1.000263,3.233423,2000,7.0,4.0
# From MPEC 2024-E08
C/2021 X2 (Bok),h,07/08.1084/2022,137.1610,228.8235,193.3165,1.000936,2.995775,2000,13.0,4.0
# From MPEC 2023-XP6
C/2021 Y1 (ATLAS),h,04/30.7542/2023,77.1936,244.7673,245.8329,1.001152,2.032541,2000,7.0,4.0
# From MPEC 2022-YN2
C/2022 A1 (Sarneczky),e,116.5354,285.5087,201.2414,351.8772,0.0001493,0.99643578,0.0000,01/31.0556/2022,2000,g 18.0,4.0
# From MPEC 2024-DC6
C/2022 A2 (PANSTARRS),h,02/18.2341/2023,108.1327,171.5834,88.3680,1.000262,1.735436,2000,9.5,4.0
# From MPEC 2024-F34
C/2022 A3 (Lemmon-ATLAS),e,88.3410,325.4741,234.8518,864.4395,0.0000388,0.99571557,0.0000,09/28.8732/2023,2000,g  8.0,4.0
# From MPEC 2022-K19
P/2022 B1 (Wierzchos),e,10.9903,325.4326,148.8704,5.467158,0.0771013,0.65336869,59.7888,04/11.0/2024,2000,g 16.5,4.0
# From MPEC 2022-YB4
A/2022 B3,e,132.0538,286.1881,150.6961,708.6566,0.0000522,0.99477843,0.0000,01/17.2153/2022,2000,g 16.5,2.0
# From MPEC 2022-GA9
C/2022 B4 (Bok),e,20.0468,340.6028,152.9505,384.7684,0.0001306,0.99642056,0.0000,01/30.0517/2022,2000,g 21.0,4.0
# From MPEC 2023-J29
P/2022 BV9 (Lemmon),e,11.9296,337.3097,16.3133,4.363251,0.1081406,0.23426513,136.8200,04/11.0/2024,2000,g  9.5,4.0
# From MPEC 2023-J29
P/2022 C1 (PANSTARRS),e,4.7623,113.1182,9.3680,7.227360,0.0507265,0.44872021,45.0620,04/11.0/2024,2000,g 12.0,4.0
# From MPEC 2023-VM5
P/2022 C2 (PANSTARRS),e,9.9825,135.2605,89.2217,6.036964,0.0664471,0.44187547,40.7934,04/11.0/2024,2000,g 12.5,4.0
# From MPEC 2023-UR6
P/2022 C3 (PANSTARRS),e,12.8202,139.0416,93.8785,9.624019,0.0330118,0.54558902,21.4712,04/11.0/2024,2000,g 11.5,4.0
# From MPEC 2022-K19
P/2022 D1 (PANSTARRS),e,44.0778,47.9585,88.6588,7.403319,0.0489288,0.54754870,46.8157,04/11.0/2024,2000,g 12.5,4.0
# From MPEC 2022-K19
C/2022 D2 (Kowalski),e,22.6632,312.4148,177.8008,374.4806,0.0001360,0.99585184,0.0000,03/27.7024/2022,2000,g 17.0,4.0
# From MPEC 2024-F34
C/2022 E2 (ATLAS),h,09/14.0981/2024,137.1252,125.3702,41.7132,1.000766,3.666356,2000,5.0,4.0
# From MPEC 2024-F34
C/2022 E3 (ZTF),h,01/12.7252/2023,109.1683,302.5497,145.8100,1.000080,1.112438,2000,7.5,4.0
# From MPEC 2023-R20
C/2022 F1 (ATLAS),e,57.9831,350.6439,278.2922,4237,0.0000036,0.99858966,0.0000,08/05.2117/2022,2000,g  7.0,4.0
# From MPEC 2022-QD9
C/2022 F2 (NEOWISE),e,97.3142,58.7829,200.6228,23.98664,0.0083898,0.93377354,6.2908,04/11.0/2024,2000,g 14.5,4.0
# From MPEC 2023-J95
C/2022 H1 (PANSTARRS),e,49.8358,6.3363,246.1467,710.9828,0.0000520,0.98917450,0.0000,01/17.0375/2024,2000,g  6.0,4.0
# From MPEC 2022-VC5
C/2022 J1 (Maury-Attard),e,105.9521,280.7669,305.6610,47.61363,0.0029999,0.96632100,2.3456,04/11.0/2024,2000,g 14.9,4.0
# From MPEC 2023-M14
C/2022 J2 (Bok),e,149.1373,252.6473,133.0731,90.56150,0.0011436,0.97984347,0.0000,10/26.9675/2022,2000,g  9.0,4.0
# From MPEC 2024-DC6
C/2022 JK5 (PANSTARRS),e,16.8324,59.6445,247.2413,43.78865,0.0034014,0.93860400,1.1835,04/11.0/2024,2000,g 11.0,4.0
# From MPEC 2022-ST7
C/2022 K1 (Leonard),h,12/17.2330/2021,41.9647,136.3354,142.6356,1.001910,3.988937,2000,11.0,4.0
# From MPEC 2023-CD7
C/2022 L1 (Catalina),e,123.4503,300.0328,59.8364,499.9222,0.0000882,0.99681743,0.0000,09/28.1887/2022,2000,g 15.8,4.0
# From MPEC 2024-F34
C/2022 L2 (ATLAS),h,03/12.2702/2024,129.3142,39.2412,199.9202,1.001357,2.692701,2000,6.5,4.0
# From MPEC 2024-DC6
P/2022 L3 (ATLAS),e,21.5428,29.8078,10.3645,6.502845,0.0594359,0.62771308,31.4416,04/11.0/2024,2000,g 16.5,4.0
# From MPEC 2022-N37
C/2022 L4 (PANSTARRS),e,141.2445,66.0647,125.3233,285.6014,0.0002042,0.98944842,0.0000,12/08.9277/2021,2000,g 14.0,4.0
# From MPEC 2023-FK0
C/2022 N1 (Attard-Maury),e,164.7341,301.8741,41.0478,36.92030,0.0043935,0.95990003,2.5436,04/11.0/2024,2000,g 16.9,4.0
# From MPEC 2023-XP6
C/2022 N2 (PANSTARRS),h,07/31.5945/2025,5.5027,319.7396,75.3642,1.003731,3.826057,2000,6.0,4.0
# From MPEC 2024-A43
C/2022 O1 (ATLAS),h,02/15.9207/2022,71.0413,49.9173,268.9320,1.003006,7.432579,2000,6.0,4.0
# From MPEC 2023-HD1
P/2022 O2 (PANSTARRS),e,9.4235,330.4911,48.6376,6.305598,0.0622465,0.72130917,28.6319,04/11.0/2024,2000,g 16.2,4.0
# From MPEC 2023-N01
C/2022 P1 (NEOWISE),e,154.6037,205.0821,249.9382,18.48258,0.0124040,0.91370975,6.1952,04/11.0/2024,2000,g 13.0,4.0
# From MPEC 2023-XP6
P/2022 P2 (ZTF),e,12.4399,291.2033,137.6810,4.488769,0.1036366,0.55818514,66.3314,04/11.0/2024,2000,g 12.5,4.0
# From MPEC 2023-HD1
C/2022 P3 (ZTF),e,59.5169,72.2194,0.1473,252.4677,0.0002457,0.98984905,0.0000,07/27.4523/2022,2000,g  9.0,4.0
# From MPEC 2023-R20
C/2022 Q2 (ATLAS),e,151.4809,352.9517,44.0709,32.84911,0.0052350,0.94995610,2.2791,04/11.0/2024,2000,g 13.0,4.0
# From MPEC 2024-F34
C/2022 QE78 (ATLAS),h,09/10.2388/2025,36.5512,119.9391,0.3827,1.003973,5.479796,2000,5.0,4.0
# From MPEC 2023-W26
P/2022 R1 (PANSTARRS),e,7.3726,175.9158,222.0065,7.211640,0.0508924,0.50470413,9.5052,04/11.0/2024,2000,g 11.5,4.0
# From MPEC 2022-Y15
C/2022 R2 (ATLAS),e,52.9070,60.4122,78.3420,421.5622,0.0001139,0.99850143,0.0000,10/25.2869/2022,2000,g 17.0,4.0
# From MPEC 2024-F34
C/2022 R3 (Leonard),h,03/05.5668/2023,43.0818,8.2440,72.8926,1.001179,5.129608,2000,9.0,4.0
# From MPEC 2022-X67
P/2022 R4 (PANSTARRS),e,21.0191,176.6298,197.4684,3.837133,0.1311275,0.48996799,84.0105,04/11.0/2024,2000,g 16.5,4.0
# From MPEC 2022-WQ9
P/2022 R5 (PANSTARRS),e,15.2941,115.0502,240.5589,3.068814,0.1833362,0.19518394,125.5547,04/11.0/2024,2000,g 16.0,4.0
# From MPEC 2024-F34
C/2022 R6 (PANSTARRS),h,08/25.5849/2025,57.0213,150.7777,319.8622,1.004507,6.566864,2000,5.0,4.0
# From MPEC 2023-HD1
